[
  {
    "OBJECT_NAME": "STARLINK-35079",
    "OBJECT_ID": "25210AD",
    "EPOCH": "2025-11-11T02:36:02.955456",
    "MEAN_MOTION": 15.31959486,
    "ECCENTRICITY": 8.71e-05,
    "INCLINATION": 53.1599,
    "RA_OF_ASC_NODE": 138.0214,
    "ARG_OF_PERICENTER": 66.6146,
    "MEAN_ANOMALY": 293.4947,
    "EPHEMERIS_TYPE": 0,
    "CLASSIFICATION_TYPE": "U",
    "NORAD_CAT_ID": 65649,
    "ELEMENT_SET_NO": 999,
    "REV_AT_EPOCH": 957,
    "BSTAR": 0.0,
    "MEAN_MOTION_DOT": -0.00349083,
    "MEAN_MOTION_DDOT": 0.0,
    "TLE_LINE1": "1 65649U 25210AD  25315.10836754 -.00349083  00000+0 -11675-1 0  9999",
    "TLE_LINE2": "2 65649  53.1599 138.0214 0000871  66.6146 293.4947 15.31959486  9578",
    "COMMENT": "Grouped by shell and plane from TLE"
  }
]